{
"type": "FeatureCollection",
"name": "basin_801_802",
"crs": { "type": "name", "properties": { "name": "urn:ogc:def:crs:EPSG::3035" } },
"features": [
{ "type": "Feature", "properties": { "ID": 801, "area_calc": 42.888, "elev_mean": 2373, "elev_med": 2407, "elev_std": 296, "elev_ran": 1446, "slope_mean": 360, "mvert_dist": 11.0, "mvert_ang": 326, "elon_ratio": 0.675, "strm_dens": 0.58, "p_mean": 3.88, "et0_mean": 1.9, "eta_mean": 0.74, "arid_1": 0.49, "arid_2": 0.57, "p_season": 0.33, "frac_snow": 0.48, "hi_prec_fr": 11.0, "hi_prec_du": 1.13, "hi_prec_ti": "jja", "lo_prec_fr": 167.9, "lo_prec_du": 2.9, "lo_prec_ti": "djf", "lc_dom": 333, "agr_fra": 0.039, "bare_fra": 0.55, "forest_fra": 0.016, "glac_fra": 0.012, "lake_fra": 0.0, "urban_fra": 0.0, "lai_max": 1.4, "lai_diff": 1.4, "ndvi_max": 0.48, "ndvi_min": -0.06, "gvf_max": 0.68, "gvf_diff": 0.95, "bedrk_dep": 0.52, "root_dep": 0.58, "soil_poros": 0.39, "soil_condu": 0.03, "soil_tawc": 0.06, "sand_fra": 0.769, "silt_fra": 0.15, "clay_fra": 0.081, "grav_fra": 0.148, "oc_fra": 0.011, "gc_dom": "mt", "gc_ig_fra": 0.02, "gc_mt_fra": 0.792, "gc_pa_fra": 0.0, "gc_pb_fra": 0.0, "gc_pi_fra": 0.0, "gc_py_fra": 0.0, "gc_sc_fra": 0.0, "gc_sm_fra": 0.0, "gc_ss_fra": 0.0, "gc_su_fra": 0.189, "gc_va_fra": 0.0, "gc_vb_fra": 0.0, "gc_wb_fra": 0.0, "geol_perme": -12.5, "geol_poros": 0.051, "NEXTDOWNID": 802 }, "geometry": { "type": "MultiPolygon", "coordinates": [ [ [ [ 4316577.477488246746361, 2624721.777763448655605 ], [ 4316795.266530115157366, 2624016.330649571493268 ], [ 4316583.978154140524566, 2623598.079453898593783 ], [ 4317268.720968959853053, 2623133.338121127337217 ], [ 4317891.504858748987317, 2623171.098554288968444 ], [ 4317919.720822370611131, 2622501.27644527098164 ], [ 4317727.971774639561772, 2621961.538384988903999 ], [ 4317404.839120126329362, 2621398.127602767664939 ], [ 4317564.030484054237604, 2621061.177635377738625 ], [ 4317749.26891880389303, 2620754.310792882926762 ], [ 4317903.429903946816921, 2620503.349994375370443 ], [ 4317778.751007223501801, 2620068.744466454256326 ], [ 4317303.98642528988421, 2620137.104217195883393 ], [ 4316909.490715779364109, 2619986.825403797440231 ], [ 4316725.2130475230515, 2620072.658312938176095 ], [ 4316341.224341945722699, 2620251.515829421579838 ], [ 4315588.799407029524446, 2620269.378127346746624 ], [ 4314968.413630279712379, 2620059.371428768150508 ], [ 4314557.408638180233538, 2619775.001890786457807 ], [ 4314314.450979752466083, 2619208.809483360499144 ], [ 4313929.683539014309645, 2619144.484473871067166 ], [ 4313760.721998804248869, 2619094.297877768985927 ], [ 4313583.507426902651787, 2619636.528250997886062 ], [ 4313608.411077587865293, 2619857.006127153057605 ], [ 4313633.550214858725667, 2620267.346751862205565 ], [ 4313686.245889713056386, 2620564.322950736619532 ], [ 4313788.180267532356083, 2620861.222670849878341 ], [ 4313659.1131886318326, 2621020.614597342908382 ], [ 4313533.367389087565243, 2621366.776126771233976 ], [ 4313601.337378850206733, 2621577.950650918763131 ], [ 4313530.903257046826184, 2621850.531324096024036 ], [ 4313285.005375840701163, 2622065.168254292570055 ], [ 4312774.502749482169747, 2622280.185314572881907 ], [ 4312300.996277531608939, 2622519.67433507880196 ], [ 4312196.702580824494362, 2622734.120297759771347 ], [ 4312006.27941126935184, 2622954.818569384980947 ], [ 4311625.095827102661133, 2623157.46126784523949 ], [ 4311674.766581983305514, 2623438.981152823660523 ], [ 4311546.058979669585824, 2623751.389410529285669 ], [ 4311601.988244785927236, 2624100.202323733828962 ], [ 4311731.384999447502196, 2624228.528937348164618 ], [ 4311682.663248156197369, 2624540.764245327562094 ], [ 4311246.159614509902894, 2624700.629218284506351 ], [ 4311129.609814058989286, 2624896.679848479572684 ], [ 4310797.907448108308017, 2625166.548677632585168 ], [ 4310946.106432224623859, 2625502.871114763431251 ], [ 4310934.558786089532077, 2625943.486492281313986 ], [ 4310880.249037089757621, 2626549.349704068154097 ], [ 4310905.340687737800181, 2626836.870412705466151 ], [ 4310844.418530432507396, 2627167.35680244769901 ], [ 4310666.358168632723391, 2627314.507036882452667 ], [ 4310421.332317473366857, 2627828.831991798244417 ], [ 4310511.583372634835541, 2628446.479612827301025 ], [ 4311164.238833460025489, 2629050.831856063567102 ], [ 4311591.783851649612188, 2629258.049797581974417 ], [ 4312348.037754880264401, 2629397.509507966227829 ], [ 4312974.863374357111752, 2629304.8517643250525 ], [ 4313632.296901738271117, 2629096.01883049774915 ], [ 4313785.721553051844239, 2628893.989743714686483 ], [ 4314135.592355177737772, 2628453.172210675198585 ], [ 4314516.329969323240221, 2628079.597171688452363 ], [ 4314976.944234922528267, 2627608.060740846209228 ], [ 4315124.005866916850209, 2627106.251853767316788 ], [ 4315664.832488656044006, 2626793.692464939318597 ], [ 4315842.738472692668438, 2626310.163580524735153 ], [ 4316033.17065064702183, 2626059.11882908269763 ], [ 4316186.53191398549825, 2625581.68428320530802 ], [ 4316364.51273359451443, 2625091.956888247281313 ], [ 4316577.477488246746361, 2624721.777763448655605 ] ] ] ] } },
{ "type": "Feature", "properties": { "ID": 802, "area_calc": 140.977, "elev_mean": 2179, "elev_med": 2216, "elev_std": 350, "elev_ran": 1583, "slope_mean": 318, "mvert_dist": 13.5, "mvert_ang": 244, "elon_ratio": 0.989, "strm_dens": 0.75, "p_mean": 3.97, "et0_mean": 2.02, "eta_mean": 0.76, "arid_1": 0.51, "arid_2": 0.59, "p_season": 0.33, "frac_snow": 0.47, "hi_prec_fr": 10.95, "hi_prec_du": 1.12, "hi_prec_ti": "jja", "lo_prec_fr": 169.25, "lo_prec_du": 2.91, "lo_prec_ti": "djf", "lc_dom": 321, "agr_fra": 0.076, "bare_fra": 0.331, "forest_fra": 0.179, "glac_fra": 0.002, "lake_fra": 0.004, "urban_fra": 0.025, "lai_max": 1.93, "lai_diff": 1.91, "ndvi_max": 0.57, "ndvi_min": -0.03, "gvf_max": 0.78, "gvf_diff": 0.99, "bedrk_dep": 0.72, "root_dep": 0.76, "soil_poros": 0.4, "soil_condu": 0.066, "soil_tawc": 0.09, "sand_fra": 0.756, "silt_fra": 0.16, "clay_fra": 0.084, "grav_fra": 0.124, "oc_fra": 0.01, "gc_dom": "mt", "gc_ig_fra": 0.0, "gc_mt_fra": 0.591, "gc_pa_fra": 0.0, "gc_pb_fra": 0.0, "gc_pi_fra": 0.0, "gc_py_fra": 0.0, "gc_sc_fra": 0.111, "gc_sm_fra": 0.0, "gc_ss_fra": 0.004, "gc_su_fra": 0.266, "gc_va_fra": 0.024, "gc_vb_fra": 0.0, "gc_wb_fra": 0.004, "geol_perme": -12.0, "geol_poros": 0.08, "NEXTDOWNID": 803 }, "geometry": { "type": "MultiPolygon", "coordinates": [ [ [ [ 4300703.122582675889134, 2629797.973448401782662 ], [ 4302013.300470482558012, 2630117.544541426002979 ], [ 4301990.813706797547638, 2630765.782788244076073 ], [ 4302053.546512898989022, 2631162.997572949621826 ], [ 4302818.073165302164853, 2631001.528533926233649 ], [ 4303214.04881979431957, 2630877.988193737342954 ], [ 4303719.181571933440864, 2631298.299094006884843 ], [ 4304058.367800721898675, 2631725.232596176676452 ], [ 4303942.569914511404932, 2632049.584389096591622 ], [ 4303882.931064673699439, 2632667.15981630794704 ], [ 4304424.115169611759484, 2632873.374098315834999 ], [ 4305272.610126198269427, 2633158.228943611495197 ], [ 4306069.972246402874589, 2633899.403087831102312 ], [ 4306271.399610606953502, 2634623.020779380574822 ], [ 4306184.70550674572587, 2635555.037445583380759 ], [ 4307170.705368393100798, 2635036.992143570911139 ], [ 4307512.395395556464791, 2634833.797726521268487 ], [ 4307781.941873420961201, 2635035.53360186284408 ], [ 4308480.439261807128787, 2635231.791376860346645 ], [ 4309036.600480148568749, 2635450.544216614216566 ], [ 4309868.79495407640934, 2635549.65815807133913 ], [ 4310271.352569434791803, 2635755.841820264235139 ], [ 4311197.848887202329934, 2635375.367814727127552 ], [ 4312100.226526417769492, 2635208.912218693643808 ], [ 4312235.589099414646626, 2634219.004431792534888 ], [ 4312897.096386545337737, 2634100.36930177686736 ], [ 4313189.717254662886262, 2633754.839600200299174 ], [ 4313851.29601052775979, 2633636.316011168062687 ], [ 4314143.996191163547337, 2633290.836384536232799 ], [ 4314805.646390251815319, 2633172.424553385935724 ], [ 4315198.200141500681639, 2632709.241915326565504 ], [ 4316078.575853149406612, 2632826.05944364471361 ], [ 4316471.966715381480753, 2633288.499133572913706 ], [ 4317110.262194261886179, 2633154.369438420515507 ], [ 4317216.845755909569561, 2632655.376586557365954 ], [ 4316861.381374307908118, 2632018.455721795093268 ], [ 4317325.821452501229942, 2631436.818198171444237 ], [ 4317748.200163343921304, 2631291.94669650727883 ], [ 4317753.067742834798992, 2630795.091002742759883 ], [ 4317524.903662777505815, 2630240.385602915659547 ], [ 4317774.627886112779379, 2629776.357375948689878 ], [ 4317855.083172950893641, 2628814.18978275405243 ], [ 4318467.784315684810281, 2627682.577370381448418 ], [ 4318317.422550999559462, 2627512.791680433321744 ], [ 4318478.397060206159949, 2627110.355407416354865 ], [ 4318374.237083660438657, 2626925.708176266867667 ], [ 4318140.8639617851004, 2626549.29918671771884 ], [ 4317897.036138081923127, 2625812.397319526411593 ], [ 4317355.879661268554628, 2624901.422952976543456 ], [ 4316909.70771776791662, 2624775.003464534413069 ], [ 4316577.477488246746361, 2624721.777763448655605 ], [ 4316364.51273359451443, 2625091.956888247281313 ], [ 4316186.53191398549825, 2625581.68428320530802 ], [ 4316033.17065064702183, 2626059.11882908269763 ], [ 4315842.738472692668438, 2626310.163580524735153 ], [ 4315664.832488656044006, 2626793.692464939318597 ], [ 4315124.005866916850209, 2627106.251853767316788 ], [ 4314976.944234922528267, 2627608.060740846209228 ], [ 4314516.329969323240221, 2628079.597171688452363 ], [ 4314135.592355177737772, 2628453.172210675198585 ], [ 4313785.721553051844239, 2628893.989743714686483 ], [ 4313632.296901738271117, 2629096.01883049774915 ], [ 4312974.863374357111752, 2629304.8517643250525 ], [ 4312348.037754880264401, 2629397.509507966227829 ], [ 4311591.783851649612188, 2629258.049797581974417 ], [ 4311164.238833460025489, 2629050.831856063567102 ], [ 4310511.583372634835541, 2628446.479612827301025 ], [ 4310421.332317473366857, 2627828.831991798244417 ], [ 4310666.358168632723391, 2627314.507036882452667 ], [ 4310844.418530432507396, 2627167.35680244769901 ], [ 4310905.340687737800181, 2626836.870412705466151 ], [ 4310880.249037089757621, 2626549.349704068154097 ], [ 4310934.558786089532077, 2625943.486492281313986 ], [ 4310946.106432224623859, 2625502.871114763431251 ], [ 4310797.907448108308017, 2625166.548677632585168 ], [ 4311129.609814058989286, 2624896.679848479572684 ], [ 4311246.159614509902894, 2624700.629218284506351 ], [ 4311682.663248156197369, 2624540.764245327562094 ], [ 4311731.384999447502196, 2624228.528937348164618 ], [ 4311601.988244785927236, 2624100.202323733828962 ], [ 4311546.058979669585824, 2623751.389410529285669 ], [ 4311674.766581983305514, 2623438.981152823660523 ], [ 4311625.095827102661133, 2623157.46126784523949 ], [ 4312006.27941126935184, 2622954.818569384980947 ], [ 4312196.702580824494362, 2622734.120297759771347 ], [ 4312300.996277531608939, 2622519.67433507880196 ], [ 4312774.502749482169747, 2622280.185314572881907 ], [ 4313285.005375840701163, 2622065.168254292570055 ], [ 4313530.903257046826184, 2621850.531324096024036 ], [ 4313601.337378850206733, 2621577.950650918763131 ], [ 4313533.367389087565243, 2621366.776126771233976 ], [ 4313659.1131886318326, 2621020.614597342908382 ], [ 4313788.180267532356083, 2620861.222670849878341 ], [ 4313686.245889713056386, 2620564.322950736619532 ], [ 4313633.550214858725667, 2620267.346751862205565 ], [ 4313608.411077587865293, 2619857.006127153057605 ], [ 4313583.507426902651787, 2619636.528250997886062 ], [ 4313760.721998804248869, 2619094.297877768985927 ], [ 4313451.494555781595409, 2619002.448142217937857 ], [ 4313058.527371542528272, 2618770.455467185005546 ], [ 4312532.992944425903261, 2618704.17184574669227 ], [ 4311976.130404474213719, 2618818.981993965338916 ], [ 4311294.927728807553649, 2619314.360697984695435 ], [ 4310923.765604540705681, 2619393.484768180642277 ], [ 4310657.629409885965288, 2619778.221056627575308 ], [ 4310340.974109035916626, 2619857.284535653423518 ], [ 4309624.474567279219627, 2619594.041634251829237 ], [ 4309008.360256020911038, 2618855.987638466991484 ], [ 4308740.726544413715601, 2618472.301403477787971 ], [ 4308023.641522058285773, 2617927.276420775335282 ], [ 4307466.377355578355491, 2618396.713458748534322 ], [ 4307146.126719036139548, 2618860.220056885387748 ], [ 4306960.557736312970519, 2618899.9143863809295 ], [ 4306988.254890131764114, 2619169.097726615145802 ], [ 4306773.567611950449646, 2619509.648458885960281 ], [ 4307417.065574115142226, 2619826.122866508085281 ], [ 4308022.510103202424943, 2621092.695625414140522 ], [ 4307632.501178118400276, 2621864.978421543259174 ], [ 4307314.666850329376757, 2622331.71696750074625 ], [ 4307430.360150210559368, 2623224.855408294126391 ], [ 4307241.862233496271074, 2624186.367129493970424 ], [ 4306947.396217519417405, 2624722.116349344141781 ], [ 4306657.815228625200689, 2625147.705872539896518 ], [ 4306821.250780458562076, 2625796.992581952363253 ], [ 4306712.8775778664276, 2626757.922800524160266 ], [ 4305864.773444307036698, 2626955.905351219233125 ], [ 4305090.149173118174076, 2627019.205012334045023 ], [ 4304850.537416991777718, 2627093.298629110213369 ], [ 4304617.523595340549946, 2627326.447750763501972 ], [ 4303844.174617415294051, 2627805.903917118441314 ], [ 4302886.557309665717185, 2628298.247878200374544 ], [ 4302212.067091644741595, 2628850.934248385950923 ], [ 4301279.7121517136693, 2629453.46856691967696 ], [ 4300703.122582675889134, 2629797.973448401782662 ] ] ] ] } }
]
}
